IRIDIUM 171             
1 43929U 19002H   25193.59795067  .00000048  00000+0  10257-4 0  9997
2 43929  86.4008 135.8169 0001942  87.8841 272.2577 14.34217760340284
IRIDIUM 170             
1 43930U 19002J   25193.59851158  .00000612  00000+0  93113-4 0  9992
2 43930  86.6122 135.5658 0002378  78.6348 281.5136 14.72249717349292
IRIDIUM 167             
1 43931U 19002K   25193.80091368 -.00000016  00000+0 -12776-4 0  9992
2 43931  86.4000 135.4831 0001718  78.6848 281.4541 14.34217240340317
IRIDIUM 181             
1 56726U 23068S   25193.73908375  .00000138  00000+0  34926-4 0  9996
2 56726  86.4520 198.5658 0002050 103.4289 256.7141 14.43310898113472
IRIDIUM 177             
1 56727U 23068T   25193.82730738  .00000430  00000+0  53021-4 0  9995
2 56727  86.1992 129.9636 0002281  88.5894 271.5588 14.80228358116167
IRIDIUM 174             
1 56728U 23068U   25193.58615678  .00000639  00000+0  97430-4 0  9997
2 56728  86.6131 135.6837 0003141  81.0100 279.1472 14.72256663116054
IRIDIUM 178             
1 56729U 23068V   25193.68120860  .00000827  00000+0  10534-3 0  9991
2 56729  86.6581 167.1969 0002725  86.3031 273.8502 14.80233456116147
IRIDIUM 179             
1 56730U 23068W   25193.81103543  .00000313  00000+0  37788-4 0  9998
2 56730  86.6819 175.0892 0002501  86.7988 273.3519 14.80232717116167
